CCSDS_OMM_VERS = 2.0
CREATION_DATE  = 
ORIGINATOR     = 

OBJECT_NAME    = AQUA
OBJECT_ID      = 2002-022A
CENTER_NAME    = EARTH
REF_FRAME      = TEME
TIME_SYSTEM    = UTC
MEAN_ELEMENT_THEORY = SGP/SGP4

EPOCH          = 2026-03-10T21:48:47.484288
MEAN_MOTION    = 14.61980270
ECCENTRICITY   = .0000557
INCLINATION    = 98.4176
RA_OF_ASC_NODE = 37.2960
ARG_OF_PERICENTER = 84.9457
MEAN_ANOMALY   = 296.1349

EPHEMERIS_TYPE = 0
CLASSIFICATION_TYPE = U
NORAD_CAT_ID   = 27424
ELEMENT_SET_NO = 999
REV_AT_EPOCH   = 26891
BSTAR          = .26444E-3
MEAN_MOTION_DOT = .1276E-4
MEAN_MOTION_DDOT = 0

CCSDS_OMM_VERS = 2.0
CREATION_DATE  = 
ORIGINATOR     = 

OBJECT_NAME    = CZ-4B R/B
OBJECT_ID      = 2002-024C
CENTER_NAME    = EARTH
REF_FRAME      = TEME
TIME_SYSTEM    = UTC
MEAN_ELEMENT_THEORY = SGP/SGP4

EPOCH          = 2026-03-10T18:56:54.072672
MEAN_MOTION    = 14.14547759
ECCENTRICITY   = .0050429
INCLINATION    = 98.8837
RA_OF_ASC_NODE = 123.1907
ARG_OF_PERICENTER = 21.0882
MEAN_ANOMALY   = 88.5338

EPHEMERIS_TYPE = 0
CLASSIFICATION_TYPE = U
NORAD_CAT_ID   = 27432
ELEMENT_SET_NO = 999
REV_AT_EPOCH   = 22939
BSTAR          = .44542E-4
MEAN_MOTION_DOT = .42E-6
MEAN_MOTION_DDOT = 0

CCSDS_OMM_VERS = 2.0
CREATION_DATE  = 
ORIGINATOR     = 

OBJECT_NAME    = MIDORI II (ADEOS-II)
OBJECT_ID      = 2002-056A
CENTER_NAME    = EARTH
REF_FRAME      = TEME
TIME_SYSTEM    = UTC
MEAN_ELEMENT_THEORY = SGP/SGP4

EPOCH          = 2026-03-10T20:29:26.369952
MEAN_MOTION    = 14.29286173
ECCENTRICITY   = .0001537
INCLINATION    = 98.7768
RA_OF_ASC_NODE = 28.3393
ARG_OF_PERICENTER = 40.8915
MEAN_ANOMALY   = 319.2381

EPHEMERIS_TYPE = 0
CLASSIFICATION_TYPE = U
NORAD_CAT_ID   = 27597
ELEMENT_SET_NO = 999
REV_AT_EPOCH   = 21046
BSTAR          = .17141E-3
MEAN_MOTION_DOT = .391E-5
MEAN_MOTION_DDOT = 0

CCSDS_OMM_VERS = 2.0
CREATION_DATE  = 
ORIGINATOR     = 

OBJECT_NAME    = H-2A R/B
OBJECT_ID      = 2002-056E
CENTER_NAME    = EARTH
REF_FRAME      = TEME
TIME_SYSTEM    = UTC
MEAN_ELEMENT_THEORY = SGP/SGP4

EPOCH          = 2026-03-10T21:14:12.048288
MEAN_MOTION    = 14.33761565
ECCENTRICITY   = .0070576
INCLINATION    = 98.3204
RA_OF_ASC_NODE = 30.2049
ARG_OF_PERICENTER = 157.1407
MEAN_ANOMALY   = 218.3466

EPHEMERIS_TYPE = 0
CLASSIFICATION_TYPE = U
NORAD_CAT_ID   = 27601
ELEMENT_SET_NO = 999
REV_AT_EPOCH   = 21428
BSTAR          = .12622E-3
MEAN_MOTION_DOT = .319E-5
MEAN_MOTION_DDOT = 0

CCSDS_OMM_VERS = 2.0
CREATION_DATE  = 
ORIGINATOR     = 

OBJECT_NAME    = CZ-4B R/B
OBJECT_ID      = 2003-049C
CENTER_NAME    = EARTH
REF_FRAME      = TEME
TIME_SYSTEM    = UTC
MEAN_ELEMENT_THEORY = SGP/SGP4

EPOCH          = 2026-03-10T19:51:48.516768
MEAN_MOTION    = 14.55021315
ECCENTRICITY   = .0047314
INCLINATION    = 98.6879
RA_OF_ASC_NODE = 64.7771
ARG_OF_PERICENTER = 227.3638
MEAN_ANOMALY   = 132.3565

EPHEMERIS_TYPE = 0
CLASSIFICATION_TYPE = U
NORAD_CAT_ID   = 28059
ELEMENT_SET_NO = 999
REV_AT_EPOCH   = 18676
BSTAR          = .11738E-3
MEAN_MOTION_DOT = .461E-5
MEAN_MOTION_DDOT = 0

CCSDS_OMM_VERS = 2.0
CREATION_DATE  = 
ORIGINATOR     = 

OBJECT_NAME    = CZ-2C R/B
OBJECT_ID      = 2004-012C
CENTER_NAME    = EARTH
REF_FRAME      = TEME
TIME_SYSTEM    = UTC
MEAN_ELEMENT_THEORY = SGP/SGP4

EPOCH          = 2026-03-10T18:14:56.511456
MEAN_MOTION    = 15.64642447
ECCENTRICITY   = .0012926
INCLINATION    = 97.7219
RA_OF_ASC_NODE = 135.1543
ARG_OF_PERICENTER = 305.4485
MEAN_ANOMALY   = 54.5566

EPHEMERIS_TYPE = 0
CLASSIFICATION_TYPE = U
NORAD_CAT_ID   = 28222
ELEMENT_SET_NO = 999
REV_AT_EPOCH   = 20444
BSTAR          = .64787E-3
MEAN_MOTION_DOT = .63142E-3
MEAN_MOTION_DDOT = 0

CCSDS_OMM_VERS = 2.0
CREATION_DATE  = 
ORIGINATOR     = 

OBJECT_NAME    = SL-16 R/B
OBJECT_ID      = 2004-021B
CENTER_NAME    = EARTH
REF_FRAME      = TEME
TIME_SYSTEM    = UTC
MEAN_ELEMENT_THEORY = SGP/SGP4

EPOCH          = 2026-03-10T19:12:47.372256
MEAN_MOTION    = 14.14597565
ECCENTRICITY   = .000412
INCLINATION    = 70.9996
RA_OF_ASC_NODE = 230.1611
ARG_OF_PERICENTER = 7.6544
MEAN_ANOMALY   = 352.4641

EPHEMERIS_TYPE = 0
CLASSIFICATION_TYPE = U
NORAD_CAT_ID   = 28353
ELEMENT_SET_NO = 999
REV_AT_EPOCH   = 12299
BSTAR          = -.10598E-3
MEAN_MOTION_DOT = -.251E-5
MEAN_MOTION_DDOT = 0

CCSDS_OMM_VERS = 2.0
CREATION_DATE  = 
ORIGINATOR     = 

OBJECT_NAME    = CZ-4B R/B
OBJECT_ID      = 2004-035C
CENTER_NAME    = EARTH
REF_FRAME      = TEME
TIME_SYSTEM    = UTC
MEAN_ELEMENT_THEORY = SGP/SGP4

EPOCH          = 2026-03-10T15:05:52.262304
MEAN_MOTION    = 15.29083634
ECCENTRICITY   = .0030802
INCLINATION    = 97.3501
RA_OF_ASC_NODE = 103.8600
ARG_OF_PERICENTER = 328.0195
MEAN_ANOMALY   = 31.9175

EPHEMERIS_TYPE = 0
CLASSIFICATION_TYPE = U
NORAD_CAT_ID   = 28415
ELEMENT_SET_NO = 999
REV_AT_EPOCH   = 18005
BSTAR          = .34129E-3
MEAN_MOTION_DOT = .9699E-4
MEAN_MOTION_DDOT = 0

CCSDS_OMM_VERS = 2.0
CREATION_DATE  = 
ORIGINATOR     = 

OBJECT_NAME    = CZ-2C R/B
OBJECT_ID      = 2004-046B
CENTER_NAME    = EARTH
REF_FRAME      = TEME
TIME_SYSTEM    = UTC
MEAN_ELEMENT_THEORY = SGP/SGP4

EPOCH          = 2026-03-10T17:56:42.323712
MEAN_MOTION    = 14.26992410
ECCENTRICITY   = .0139921
INCLINATION    = 98.1981
RA_OF_ASC_NODE = 344.6659
ARG_OF_PERICENTER = 151.3284
MEAN_ANOMALY   = 209.5683

EPHEMERIS_TYPE = 0
CLASSIFICATION_TYPE = U
NORAD_CAT_ID   = 28480
ELEMENT_SET_NO = 999
REV_AT_EPOCH   = 10865
BSTAR          = .67826E-4
MEAN_MOTION_DOT = .143E-5
MEAN_MOTION_DDOT = 0

CCSDS_OMM_VERS = 2.0
CREATION_DATE  = 
ORIGINATOR     = 

OBJECT_NAME    = ARIANE 5 R/B
OBJECT_ID      = 2004-049H
CENTER_NAME    = EARTH
REF_FRAME      = TEME
TIME_SYSTEM    = UTC
MEAN_ELEMENT_THEORY = SGP/SGP4

EPOCH          = 2026-03-10T10:35:09.456288
MEAN_MOTION    = 14.85267584
ECCENTRICITY   = .008388
INCLINATION    = 98.2628
RA_OF_ASC_NODE = 237.9263
ARG_OF_PERICENTER = 349.4760
MEAN_ANOMALY   = 10.4695

EPHEMERIS_TYPE = 0
CLASSIFICATION_TYPE = U
NORAD_CAT_ID   = 28499
ELEMENT_SET_NO = 999
REV_AT_EPOCH   = 14590
BSTAR          = .11688E-3
MEAN_MOTION_DOT = .1003E-4
MEAN_MOTION_DDOT = 0

CCSDS_OMM_VERS = 2.0
CREATION_DATE  = 
ORIGINATOR     = 

OBJECT_NAME    = CZ-2D R/B
OBJECT_ID      = 2005-024B
CENTER_NAME    = EARTH
REF_FRAME      = TEME
TIME_SYSTEM    = UTC
MEAN_ELEMENT_THEORY = SGP/SGP4

EPOCH          = 2026-03-10T14:34:31.355904
MEAN_MOTION    = 15.60237643
ECCENTRICITY   = .000573
INCLINATION    = 97.3603
RA_OF_ASC_NODE = 84.7872
ARG_OF_PERICENTER = 43.9585
MEAN_ANOMALY   = 316.2127

EPHEMERIS_TYPE = 0
CLASSIFICATION_TYPE = U
NORAD_CAT_ID   = 28738
ELEMENT_SET_NO = 999
REV_AT_EPOCH   = 13992
BSTAR          = .57363E-3
MEAN_MOTION_DOT = .46867E-3
MEAN_MOTION_DDOT = 0

CCSDS_OMM_VERS = 2.0
CREATION_DATE  = 
ORIGINATOR     = 

OBJECT_NAME    = ALOS (DAICHI)
OBJECT_ID      = 2006-002A
CENTER_NAME    = EARTH
REF_FRAME      = TEME
TIME_SYSTEM    = UTC
MEAN_ELEMENT_THEORY = SGP/SGP4

EPOCH          = 2026-03-10T20:44:50.203680
MEAN_MOTION    = 14.69814887
ECCENTRICITY   = .0000866
INCLINATION    = 98.1219
RA_OF_ASC_NODE = 25.8140
ARG_OF_PERICENTER = 57.3766
MEAN_ANOMALY   = 302.7524

EPHEMERIS_TYPE = 0
CLASSIFICATION_TYPE = U
NORAD_CAT_ID   = 28931
ELEMENT_SET_NO = 999
REV_AT_EPOCH   = 7365
BSTAR          = .31098E-3
MEAN_MOTION_DOT = .1808E-4
MEAN_MOTION_DDOT = 0

