AQUA                    
1 27424U 02022A   26069.90888292  .00001276  00000+0  26444-3 0  9992
2 27424  98.4176  37.2960 0000557  84.9457 296.1349 14.61980270268915
CZ-4B R/B               
1 27432U 02024C   26069.78951473  .00000042  00000+0  44542-4 0  9991
2 27432  98.8837 123.1907 0050429  21.0882  88.5338 14.14547759229394
MIDORI II (ADEOS-II)    
1 27597U 02056A   26069.85377743  .00000391  00000+0  17141-3 0  9999
2 27597  98.7768  28.3393 0001537  40.8915 319.2381 14.29286173210461
H-2A R/B                
1 27601U 02056E   26069.88486167  .00000319  00000+0  12622-3 0  9998
2 27601  98.3204  30.2049 0070576 157.1407 218.3466 14.33761565214280
CZ-4B R/B               
1 28059U 03049C   26069.82764487  .00000461  00000+0  11738-3 0  9992
2 28059  98.6879  64.7771 0047314 227.3638 132.3565 14.55021315186765
CZ-2C R/B               
1 28222U 04012C   26069.76037629  .00063142  00000+0  64787-3 0  9996
2 28222  97.7219 135.1543 0012926 305.4485  54.5566 15.64642447204442
SL-16 R/B               
1 28353U 04021B   26069.80054829 -.00000251  00000+0 -10598-3 0  9992
2 28353  70.9996 230.1611 0004120   7.6544 352.4641 14.14597565122995
CZ-4B R/B               
1 28415U 04035C   26069.62907711  .00009699  00000+0  34129-3 0  9992
2 28415  97.3501 103.8600 0030802 328.0195  31.9175 15.29083634180057
CZ-2C R/B               
1 28480U 04046B   26069.74771208  .00000143  00000+0  67826-4 0  9995
2 28480  98.1981 344.6659 0139921 151.3284 209.5683 14.26992410108657
ARIANE 5 R/B            
1 28499U 04049H   26069.44108167  .00001003  00000+0  11688-3 0  9993
2 28499  98.2628 237.9263 0083880 349.4760  10.4695 14.85267584145905
CZ-2D R/B               
1 28738U 05024B   26069.60730736  .00046867  00000+0  57363-3 0  9991
2 28738  97.3603  84.7872 0005730  43.9585 316.2127 15.60237643139926
ALOS (DAICHI)           
1 28931U 06002A   26069.86446995  .00001808  00000+0  31098-3 0  9995
2 28931  98.1219  25.8140 0000866  57.3766 302.7524 14.69814887 73659
